track_id,frame_id,label,X,Y,Z,img_name,x,y,r,vol_real,vol_rep,xrep,yrep,error,x1cm,y1cm,d2val1,d2val2
0,0,baya,-0.731738,-0.653115,3.74584,VID_20220217_102410_F-1.png,661,284,0,0,0,663.362,285.972,3.07731,969.281,540.765,NULL,NULL
0,1,baya,-0.731738,-0.653115,3.74584,VID_20220217_102410_F3.png,638,381,0,0,0,639.042,381.853,1.34649,545.044,-13.0228,NULL,NULL
1,0,baya,0,0,0,VID_20220217_102410_F-1.png,485,280,0,0,0,-nan,-nan,-1,-nan,-nan,NULL,NULL
1,1,baya,0,0,0,VID_20220217_102410_F3.png,465,397,0,0,0,465.305,1398.41,1001.41,482.883,1116.78,NULL,NULL
2,0,baya,0,0,0,VID_20220217_102410_F-1.png,447,279,0,0,0,-nan,-nan,-1,-nan,-nan,NULL,NULL
2,1,baya,0,0,0,VID_20220217_102410_F3.png,446,378,0,0,0,465.305,1398.41,1020.59,482.883,1116.78,NULL,NULL
3,0,baya,-0.724936,-0.53058,3.5647,VID_20220217_102410_F-1.png,649,321,0,0,0,651.046,322.542,2.56185,998.754,560.013,NULL,NULL
3,1,baya,-0.724936,-0.53058,3.5647,VID_20220217_102410_F3.png,620,439,0,0,0,621.3,439.498,1.39218,546.961,58.4394,NULL,NULL
4,0,baya,0,0,0,VID_20220217_102410_F-1.png,444,366,0,0,0,-nan,-nan,-1,-nan,-nan,NULL,NULL
4,1,baya,0,0,0,VID_20220217_102410_F3.png,445,455,0,0,0,465.305,1398.41,943.625,482.883,1116.78,NULL,NULL
5,0,baya,0,0,0,VID_20220217_102410_F-1.png,566,372,0,0,0,-nan,-nan,-1,-nan,-nan,NULL,NULL
5,1,baya,0,0,0,VID_20220217_102410_F3.png,552,473,0,0,0,465.305,1398.41,929.459,482.883,1116.78,NULL,NULL
6,0,val_1,0,0,0,VID_20220217_102410_F-1.png,849,499,0,0,0,-nan,-nan,-1,-nan,-nan,NULL,NULL
6,1,val_1,0,0,0,VID_20220217_102410_F3.png,642,556,0,0,0,465.305,1398.41,860.738,482.883,1116.78,NULL,NULL
7,0,baya,0,0,0,VID_20220217_102410_F-1.png,448,307,0,0,0,-nan,-nan,-1,-nan,-nan,NULL,NULL
7,1,baya,0,0,0,VID_20220217_102410_F3.png,441,416,0,0,0,465.305,1398.41,982.707,482.883,1116.78,NULL,NULL
8,0,baya,-0.680289,-0.535665,3.66395,VID_20220217_102410_F-1.png,677,325,0,0,0,678.225,326.332,1.80954,1007.59,568.337,NULL,NULL
8,1,baya,-0.680289,-0.535665,3.66395,VID_20220217_102410_F3.png,652,411,0,0,0,653.529,411.704,1.6834,564.344,31.4663,NULL,NULL
9,0,baya,0,0,0,VID_20220217_102410_F-1.png,586,215,0,0,0,-nan,-nan,-1,-nan,-nan,NULL,NULL
9,1,baya,0,0,0,VID_20220217_102410_F3.png,567,324,0,0,0,465.305,1398.41,1079.21,482.883,1116.78,NULL,NULL
10,0,val_2,0,0,0,VID_20220217_102410_F-1.png,707,496,0,0,0,-nan,-nan,-1,-nan,-nan,NULL,NULL
10,1,val_2,0,0,0,VID_20220217_102410_F3.png,741,568,0,0,0,465.305,1398.41,874.976,482.883,1116.78,NULL,NULL
11,0,baya,-0.7905,-0.661989,3.69447,VID_20220217_102410_F-1.png,633,277,0,3.07067e-41,3.07067e-41,634.76,279.055,2.70558,953.507,528.136,NULL,NULL
11,1,baya,-0.7905,-0.661989,3.69447,VID_20220217_102410_F3.png,604,391,0,0,0,606.295,392.015,2.50949,524.974,-6.19293,NULL,NULL
12,0,baya,-1.07055,-0.51546,3.40947,VID_20220217_102410_F-1.png,477,317,0,0,0,481.123,319.185,4.66626,887.029,501.557,NULL,NULL
12,1,baya,-1.07055,-0.51546,3.40947,VID_20220217_102410_F3.png,459,440,0,0,0,462.518,440.831,3.61502,446.867,52.644,NULL,NULL
13,0,baya,0,0,0,VID_20220217_102410_F-1.png,610,237,0,0,0,-nan,-nan,-1,-nan,-nan,NULL,NULL
13,1,baya,0,0,0,VID_20220217_102410_F3.png,575,360,0,0,0,465.305,1398.41,1044.18,482.883,1116.78,NULL,NULL
14,0,baya,-0.868689,-0.548146,3.50928,VID_20220217_102410_F-1.png,580,310,0,1.13505e-43,4.94658e-43,583.193,311.999,3.76732,953.354,529.954,NULL,NULL
14,1,baya,-0.868689,-0.548146,3.50928,VID_20220217_102410_F3.png,553,438,0,0,0,554.858,438.639,1.96496,503.346,51.1842,NULL,NULL
15,0,baya,0,0,0,VID_20220217_102410_F-1.png,527,259,0,0,0,-nan,-nan,-1,-nan,-nan,NULL,NULL
15,1,baya,0,0,0,VID_20220217_102410_F3.png,511,393,0,0,0,465.305,1398.41,1006.44,482.883,1116.78,NULL,NULL
16,0,cal_1,0,0,0,VID_20220217_102410_F-1.png,651,496,0,0,0,-nan,-nan,-1,-nan,-nan,NULL,NULL
16,1,cal_1,0,0,0,VID_20220217_102410_F3.png,767,571,0,0,0,465.305,1398.41,880.694,482.883,1116.78,NULL,NULL
17,0,baya,0,0,0,VID_20220217_102410_F-1.png,549,284,0,3.07067e-41,0,-nan,-nan,-1,-nan,-nan,NULL,NULL
17,1,baya,0,0,0,VID_20220217_102410_F3.png,514,428,0,0,0,465.305,1398.41,971.628,482.883,1116.78,NULL,NULL
18,0,val_2,0,0,0,VID_20220217_102410_F-1.png,764,497,0,4.70195e-23,1.54967e-23,-nan,-nan,-1,-nan,-nan,NULL,NULL
18,1,val_2,0,0,0,VID_20220217_102410_F3.png,594,551,0,0,0,465.305,1398.41,857.123,482.883,1116.78,NULL,NULL
19,0,baya,0,0,0,VID_20220217_102410_F-1.png,647,357,0,3.07067e-41,3.07067e-41,-nan,-nan,-1,-nan,-nan,NULL,NULL
19,1,baya,0,0,0,VID_20220217_102410_F3.png,631,449,0,0,0,465.305,1398.41,963.757,482.883,1116.78,NULL,NULL
20,0,baya,-0.917229,-0.467835,3.41309,VID_20220217_102410_F-1.png,549,338,0,0,4.69582e-23,550.633,339.415,2.16092,951.526,530.219,NULL,NULL
20,1,baya,-0.917229,-0.467835,3.41309,VID_20220217_102410_F3.png,524,458,0,0,0,528.251,458.672,4.3042,492.195,79.0154,NULL,NULL
21,0,val_1,0,0,0,VID_20220217_102410_F-1.png,792,497,0,0,3.07067e-41,-nan,-nan,-1,-nan,-nan,NULL,NULL
21,1,val_1,0,0,0,VID_20220217_102410_F3.png,820,577,0,0,0,465.305,1398.41,894.716,482.883,1116.78,NULL,NULL
22,0,baya,0,0,0,VID_20220217_102410_F-1.png,415,303,0,0,4.69582e-23,-nan,-nan,-1,-nan,-nan,NULL,NULL
22,1,baya,0,0,0,VID_20220217_102410_F3.png,414,402,0,0,0,465.305,1398.41,997.727,482.883,1116.78,NULL,NULL
23,0,baya,-1.01914,-0.40581,3.32017,VID_20220217_102410_F-1.png,488,359,0,0,3.07067e-41,491.936,360.692,4.28413,921.738,520.392,NULL,NULL
23,1,baya,-1.01914,-0.40581,3.32017,VID_20220217_102410_F3.png,478,470,0,0,0,481.106,470.519,3.14895,465.962,95.8367,NULL,NULL
24,0,baya,0,0,0,VID_20220217_102410_F-1.png,412,348,0,1.4013e-45,-nan,-nan,-nan,-1,-nan,-nan,NULL,NULL
24,1,baya,0,0,0,VID_20220217_102410_F3.png,414,438,0,0,0,465.305,1398.41,961.776,482.883,1116.78,NULL,NULL
25,0,baya,-0.896319,-0.669806,3.63131,VID_20220217_102410_F-1.png,581,269,0,0,2.8026e-45,584.284,271.503,4.12871,923.112,507.774,NULL,NULL
25,1,baya,-0.896319,-0.669806,3.63131,VID_20220217_102410_F3.png,550,398,0,0,0,552.109,399.01,2.33825,491.121,-3.74774,NULL,NULL
26,0,cal_2,0,0,0,VID_20220217_102410_F-1.png,595,494,0,4.6786e-23,0,-nan,-nan,-1,-nan,-nan,NULL,NULL
26,1,cal_2,0,0,0,VID_20220217_102410_F3.png,691,562,0,0,0,465.305,1398.41,866.322,482.883,1116.78,NULL,NULL
27,0,baya,-0.992123,-0.542867,3.46034,VID_20220217_102410_F-1.png,520,309,0,3.07067e-41,0,523.025,311.019,3.63697,912.426,509.843,NULL,NULL
27,1,baya,-0.992123,-0.542867,3.46034,VID_20220217_102410_F3.png,495,436,0,0,0,498.654,436.829,3.74661,467.886,46.8892,NULL,NULL
28,0,baya,0,0,0,VID_20220217_102410_F-1.png,561,240,0,4.67864e-23,0,-nan,-nan,-1,-nan,-nan,NULL,NULL
28,1,baya,0,0,0,VID_20220217_102410_F3.png,535,359,0,0,0,465.305,1398.41,1041.74,482.883,1116.78,NULL,NULL
29,0,baya,-0.813243,-0.756283,3.81032,VID_20220217_102410_F-1.png,634,249,0,3.07067e-41,0,635.584,251.394,2.87049,930.778,507.557,NULL,NULL
29,1,baya,-0.813243,-0.756283,3.81032,VID_20220217_102410_F3.png,606,349,0,0,0,608.664,350.438,3.02742,515.883,-60.0145,NULL,NULL
